{"type": "FeatureCollection", "features": [ {"type": "Feature", "properties": {"norad_id": 40115, "name": "WORLDVIEW-3 (WV-3)", "group": "resource", "lat": -46.65726232653252, "lon": 70.3242035008828, "alt_km": 621.3238690585467, "timestamp": "2025-12-15T15:53:19.535492+00:00", "meta": {"OBJECT_NAME": "WORLDVIEW-3 (WV-3)", "OBJECT_ID": "2014-048A", "EPOCH": "2025-12-14T22:19:07.435488", "MEAN_MOTION": 14.85516678, "ECCENTRICITY": 0.00049509, "INCLINATION": 97.8615, "RA_OF_ASC_NODE": 61.1828, "ARG_OF_PERICENTER": 177.6308, "MEAN_ANOMALY": 182.4932, "EPHEMERIS_TYPE": 0, "CLASSIFICATION_TYPE": "U", "NORAD_CAT_ID": 40115, "ELEMENT_SET_NO": 999, "REV_AT_EPOCH": 61456, "BSTAR": 0.00014867518, "MEAN_MOTION_DOT": 1.23e-05, "MEAN_MOTION_DDOT": 0}, "tle": {"line1": "1 40115U 14048A   25348.92994717  .00001230  00000+0  14868-3 0  9993", "line2": "2 40115  97.8615  61.1828 0004950 177.6308 182.4932 14.85516678614567"}}, "geometry": {"type": "Point", "coordinates": [70.3242035008828, -46.65726232653252]}}, {"type": "Feature", "properties": {"norad_id": 40118, "name": "GAOFEN-2", "group": "resource", "lat": 76.15160885264378, "lon": 13.85650867644744, "alt_km": 614.715950785614, "timestamp": "2025-12-15T15:53:19.535502+00:00", "meta": {"OBJECT_NAME": "GAOFEN-2", "OBJECT_ID": "2014-049A", "EPOCH": "2025-12-14T23:18:56.090592", "MEAN_MOTION": 14.80613631, "ECCENTRICITY": 0.00086473, "INCLINATION": 98.0386, "RA_OF_ASC_NODE": 48.1436, "ARG_OF_PERICENTER": 106.565, "MEAN_ANOMALY": 253.6512, "EPHEMERIS_TYPE": 0, "CLASSIFICATION_TYPE": "U", "NORAD_CAT_ID": 40118, "ELEMENT_SET_NO": 999, "REV_AT_EPOCH": 61197, "BSTAR": 9.0857001e-05, "MEAN_MOTION_DOT": 6.44e-06, "MEAN_MOTION_DDOT": 0}, "tle": {"line1": "1 40118U 14049A   25348.97148253  .00000644  00000+0  90857-4 0  9999", "line2": "2 40118  98.0386  48.1436 0008647 106.5650 253.6512 14.80613631611975"}}, "geometry": {"type": "Point", "coordinates": [13.85650867644744, 76.15160885264378]}}, {"type": "Feature", "properties": {"norad_id": 40143, "name": "YAOGAN-21", "group": "resource", "lat": 44.74847789527994, "lon": -139.97705484214265, "alt_km": 492.35176755788234, "timestamp": "2025-12-15T15:53:19.535511+00:00", "meta": {"OBJECT_NAME": "YAOGAN-21", "OBJECT_ID": "2014-053A", "EPOCH": "2025-12-14T23:32:20.511744", "MEAN_MOTION": 15.23706363, "ECCENTRICITY": 0.00096055, "INCLINATION": 97.1766, "RA_OF_ASC_NODE": 32.1961, "ARG_OF_PERICENTER": 34.4162, "MEAN_ANOMALY": 325.7696, "EPHEMERIS_TYPE": 0, "CLASSIFICATION_TYPE": "U", "NORAD_CAT_ID": 40143, "ELEMENT_SET_NO": 999, "REV_AT_EPOCH": 62688, "BSTAR": 0.00018482774, "MEAN_MOTION_DOT": 4.375e-05, "MEAN_MOTION_DDOT": 0}, "tle": {"line1": "1 40143U 14053A   25348.98079296  .00004375  00000+0  18483-3 0  9992", "line2": "2 40143  97.1766  32.1961 0009605  34.4162 325.7696 15.23706363626886"}}, "geometry": {"type": "Point", "coordinates": [-139.97705484214265, 44.74847789527994]}}, {"type": "Feature", "properties": {"norad_id": 40275, "name": "YAOGAN-22", "group": "resource", "lat": -55.20552692380487, "lon": 148.97582802374836, "alt_km": 1206.6471110216562, "timestamp": "2025-12-15T15:53:19.535520+00:00", "meta": {"OBJECT_NAME": "YAOGAN-22", "OBJECT_ID": "2014-063A", "EPOCH": "2025-12-14T21:55:26.853600", "MEAN_MOTION": 13.15522727, "ECCENTRICITY": 0.0005964, "INCLINATION": 100.7422, "RA_OF_ASC_NODE": 132.3637, "ARG_OF_PERICENTER": 242.8772, "MEAN_ANOMALY": 117.1732, "EPHEMERIS_TYPE": 0, "CLASSIFICATION_TYPE": "U", "NORAD_CAT_ID": 40275, "ELEMENT_SET_NO": 999, "REV_AT_EPOCH": 53558, "BSTAR": 6.8907954e-05, "MEAN_MOTION_DOT": -2.1e-07, "MEAN_MOTION_DDOT": 0}, "tle": {"line1": "1 40275U 14063A   25348.91350525 -.00000021  00000+0  68908-4 0  9992", "line2": "2 40275 100.7422 132.3637 0005964 242.8772 117.1732 13.15522727535580"}}, "geometry": {"type": "Point", "coordinates": [148.97582802374836, -55.20552692380487]}}, {"type": "Feature", "properties": {"norad_id": 40298, "name": "ASNARO", "group": "resource", "lat": 40.72160870777188, "lon": -108.0706899807185, "alt_km": 500.5458778936236, "timestamp": "2025-12-15T15:53:19.535529+00:00", "meta": {"OBJECT_NAME": "ASNARO", "OBJECT_ID": "2014-070A", "EPOCH": "2025-12-14T23:28:34.351968", "MEAN_MOTION": 15.19548171, "ECCENTRICITY": 0.00056195, "INCLINATION": 97.365, "RA_OF_ASC_NODE": 64.8696, "ARG_OF_PERICENTER": 115.2371, "MEAN_ANOMALY": 244.9447, "EPHEMERIS_TYPE": 0, "CLASSIFICATION_TYPE": "U", "NORAD_CAT_ID": 40298, "ELEMENT_SET_NO": 999, "REV_AT_EPOCH": 61603, "BSTAR": 0.00033756384, "MEAN_MOTION_DOT": 7.113e-05, "MEAN_MOTION_DDOT": 0}, "tle": {"line1": "1 40298U 14070A   25348.97817537  .00007113  00000+0  33756-3 0  9992", "line2": "2 40298  97.3650  64.8696 0005619 115.2371 244.9447 15.19548171616037"}}, "geometry": {"type": "Point", "coordinates": [-108.0706899807185, 40.72160870777188]}}, {"type": "Feature", "properties": {"norad_id": 40310, "name": "YAOGAN-24", "group": "resource", "lat": 15.506423155776892, "lon": 118.49933233446939, "alt_km": 646.2762842141628, "timestamp": "2025-12-15T15:53:19.535538+00:00", "meta": {"OBJECT_NAME": "YAOGAN-24", "OBJECT_ID": "2014-072A", "EPOCH": "2025-12-14T23:32:59.701920", "MEAN_MOTION": 14.7618325, "ECCENTRICITY": 0.00148414, "INCLINATION": 98.1216, "RA_OF_ASC_NODE": 120.0858, "ARG_OF_PERICENTER": 131.1962, "MEAN_ANOMALY": 229.053, "EPHEMERIS_TYPE": 0, "CLASSIFICATION_TYPE": "U", "NORAD_CAT_ID": 40310, "ELEMENT_SET_NO": 999, "REV_AT_EPOCH": 59654, "BSTAR": 0.00015560092, "MEAN_MOTION_DOT": 1.025e-05, "MEAN_MOTION_DDOT": 0}, "tle": {"line1": "1 40310U 14072A   25348.98124655  .00001025  00000+0  15560-3 0  9991", "line2": "2 40310  98.1216 120.0858 0014841 131.1962 229.0530 14.76183250596549"}}, "geometry": {"type": "Point", "coordinates": [118.49933233446939, 15.506423155776892]}}, {"type": "Feature", "properties": {"norad_id": 40336, "name": "CBERS 4", "group": "resource", "lat": 48.52094780188317, "lon": 38.0384660846671, "alt_km": 768.3198518871359, "timestamp": "2025-12-15T15:53:19.535547+00:00", "meta": {"OBJECT_NAME": "CBERS 4", "OBJECT_ID": "2014-079A", "EPOCH": "2025-12-14T22:55:54.920064", "MEAN_MOTION": 14.35518685, "ECCENTRICITY": 0.00016905, "INCLINATION": 98.3308, "RA_OF_ASC_NODE": 46.8965, "ARG_OF_PERICENTER": 109.4567, "MEAN_ANOMALY": 250.6802, "EPHEMERIS_TYPE": 0, "CLASSIFICATION_TYPE": "U", "NORAD_CAT_ID": 40336, "ELEMENT_SET_NO": 999, "REV_AT_EPOCH": 57752, "BSTAR": 7.5205069e-05, "MEAN_MOTION_DOT": 1.74e-06, "MEAN_MOTION_DDOT": 0}, "tle": {"line1": "1 40336U 14079A   25348.95549676  .00000174  00000+0  75205-4 0  9994", "line2": "2 40336  98.3308  46.8965 0001690 109.4567 250.6802 14.35518685577520"}}, "geometry": {"type": "Point", "coordinates": [38.0384660846671, 48.52094780188317]}}, {"type": "Feature", "properties": {"norad_id": 40362, "name": "YAOGAN-26", "group": "resource", "lat": 13.657993347230768, "lon": -11.494721679735095, "alt_km": 445.03655905429423, "timestamp": "2025-12-15T15:53:19.535557+00:00", "meta": {"OBJECT_NAME": "YAOGAN-26", "OBJECT_ID": "2014-088A", "EPOCH": "2025-12-14T22:40:06.426912", "MEAN_MOTION": 15.3938964, "ECCENTRICITY": 0.00058769, "INCLINATION": 97.0645, "RA_OF_ASC_NODE": 349.54, "ARG_OF_PERICENTER": 22.8619, "MEAN_ANOMALY": 337.2888, "EPHEMERIS_TYPE": 0, "CLASSIFICATION_TYPE": "U", "NORAD_CAT_ID": 40362, "ELEMENT_SET_NO": 999, "REV_AT_EPOCH": 60928, "BSTAR": 0.00040815838, "MEAN_MOTION_DOT": 0.00015906, "MEAN_MOTION_DDOT": 0}, "tle": {"line1": "1 40362U 14088A   25348.94451883  .00015906  00000+0  40816-3 0  9992", "line2": "2 40362  97.0645 349.5400 0005876  22.8619 337.2888 15.39389640609289"}}, "geometry": {"type": "Point", "coordinates": [-11.494721679735095, 13.657993347230768]}}, {"type": "Feature", "properties": {"norad_id": 40376, "name": "SMAP", "group": "resource", "lat": -4.517907236687016, "lon": 173.69661209400837, "alt_km": 686.0453200282409, "timestamp": "2025-12-15T15:53:19.535566+00:00", "meta": {"OBJECT_NAME": "SMAP", "OBJECT_ID": "2015-003A", "EPOCH": "2025-12-14T22:38:17.245824", "MEAN_MOTION": 14.63347622, "ECCENTRICITY": 0.00012113, "INCLINATION": 98.1291, "RA_OF_ASC_NODE": 353.6353, "ARG_OF_PERICENTER": 89.9122, "MEAN_ANOMALY": 270.2219, "EPHEMERIS_TYPE": 0, "CLASSIFICATION_TYPE": "U", "NORAD_CAT_ID": 40376, "ELEMENT_SET_NO": 999, "REV_AT_EPOCH": 58067, "BSTAR": 0.00012498172, "MEAN_MOTION_DOT": 5.99e-06, "MEAN_MOTION_DDOT": 0}, "tle": {"line1": "1 40376U 15003A   25348.94325516  .00000599  00000+0  12498-3 0  9995", "line2": "2 40376  98.1291 353.6353 0001211  89.9122 270.2219 14.63347622580673"}}, "geometry": {"type": "Point", "coordinates": [173.69661209400837, -4.517907236687016]}}, {"type": "Feature", "properties": {"norad_id": 40536, "name": "KOMPSAT-3A", "group": "resource", "lat": 3.128927353505673, "lon": -36.25218304410477, "alt_km": 438.38807501961674, "timestamp": "2025-12-15T15:53:19.535575+00:00", "meta": {"OBJECT_NAME": "KOMPSAT-3A", "OBJECT_ID": "2015-014A", "EPOCH": "2025-12-14T22:45:57.820032", "MEAN_MOTION": 15.44033472, "ECCENTRICITY": 0.00051125, "INCLINATION": 97.6784, "RA_OF_ASC_NODE": 323.4174, "ARG_OF_PERICENTER": 121.9169, "MEAN_ANOMALY": 238.2576, "EPHEMERIS_TYPE": 0, "CLASSIFICATION_TYPE": "U", "NORAD_CAT_ID": 40536, "ELEMENT_SET_NO": 999, "REV_AT_EPOCH": 59329, "BSTAR": 0.00031231251, "MEAN_MOTION_DOT": 0.00014171, "MEAN_MOTION_DDOT": 0}, "tle": {"line1": "1 40536U 15014A   25348.94858588  .00014171  00000+0  31231-3 0  9992", "line2": "2 40536  97.6784 323.4174 0005112 121.9169 238.2576 15.44033472593297"}}, "geometry": {"type": "Point", "coordinates": [-36.25218304410477, 3.128927353505673]}}]}